[{"OBJECT_NAME":"STARLINK-2666","OBJECT_ID":"2021-044AE","EPOCH":"2026-03-09T09:41:56.845824","MEAN_MOTION":15.06412995,"ECCENTRICITY":0.00014416,"INCLINATION":53.0551,"RA_OF_ASC_NODE":113.3735,"ARG_OF_PERICENTER":97.7439,"MEAN_ANOMALY":262.3713,"EPHEMERIS_TYPE":0,"CLASSIFICATION_TYPE":"U","NORAD_CAT_ID":48666,"ELEMENT_SET_NO":999,"REV_AT_EPOCH":26379,"BSTAR":8.8652646e-5,"MEAN_MOTION_DOT":1.04e-5,"MEAN_MOTION_DDOT":0},{"OBJECT_NAME":"CZ-4B R\/B","OBJECT_ID":"2010-051C","EPOCH":"2026-03-09T16:48:37.977120","MEAN_MOTION":15.17426017,"ECCENTRICITY":0.00758037,"INCLINATION":97.7974,"RA_OF_ASC_NODE":110.8647,"ARG_OF_PERICENTER":95.044,"MEAN_ANOMALY":265.9451,"EPHEMERIS_TYPE":0,"CLASSIFICATION_TYPE":"U","NORAD_CAT_ID":37181,"ELEMENT_SET_NO":999,"REV_AT_EPOCH":84355,"BSTAR":0.00029718512,"MEAN_MOTION_DOT":6.328e-5,"MEAN_MOTION_DDOT":0}]
